[{"OBJECT_NAME":"STARLINK-3268","OBJECT_ID":"2021-125AL","EPOCH":"2025-12-16T01:01:06.777984","MEAN_MOTION":15.08836769,"ECCENTRICITY":0.00013878,"INCLINATION":53.217,"RA_OF_ASC_NODE":254.6274,"ARG_OF_PERICENTER":89.9074,"MEAN_ANOMALY":270.2077,"EPHEMERIS_TYPE":0,"CLASSIFICATION_TYPE":"U","NORAD_CAT_ID":50190,"ELEMENT_SET_NO":999,"REV_AT_EPOCH":22410,"BSTAR":4.6509523e-5,"MEAN_MOTION_DOT":4.52e-6,"MEAN_MOTION_DDOT":0},{"OBJECT_NAME":"STARLINK-3273","OBJECT_ID":"2021-125AM","EPOCH":"2025-12-16T04:25:07.839264","MEAN_MOTION":15.08846668,"ECCENTRICITY":9.961e-5,"INCLINATION":53.2173,"RA_OF_ASC_NODE":273.991,"ARG_OF_PERICENTER":119.7637,"MEAN_ANOMALY":240.3454,"EPHEMERIS_TYPE":0,"CLASSIFICATION_TYPE":"U","NORAD_CAT_ID":50191,"ELEMENT_SET_NO":999,"REV_AT_EPOCH":22384,"BSTAR":0.00019136911,"MEAN_MOTION_DOT":2.76e-5,"MEAN_MOTION_DDOT":0},{"OBJECT_NAME":"STARLINK-3259","OBJECT_ID":"2021-125AN","EPOCH":"2025-12-16T00:55:48.956448","MEAN_MOTION":15.08836711,"ECCENTRICITY":0.00013922,"INCLINATION":53.2175,"RA_OF_ASC_NODE":254.6452,"ARG_OF_PERICENTER":90.0989,"MEAN_ANOMALY":270.0162,"EPHEMERIS_TYPE":0,"CLASSIFICATION_TYPE":"U","NORAD_CAT_ID":50192,"ELEMENT_SET_NO":999,"REV_AT_EPOCH":22410,"BSTAR":0.00013597998,"MEAN_MOTION_DOT":1.877e-5,"MEAN_MOTION_DDOT":0},{"OBJECT_NAME":"STARLINK-3261","OBJECT_ID":"2021-125AP","EPOCH":"2025-12-16T04:22:29.042112","MEAN_MOTION":15.08839387,"ECCENTRICITY":0.00014928,"INCLINATION":53.2179,"RA_OF_ASC_NODE":254.0013,"ARG_OF_PERICENTER":87.9916,"MEAN_ANOMALY":272.1248,"EPHEMERIS_TYPE":0,"CLASSIFICATION_TYPE":"U","NORAD_CAT_ID":50193,"ELEMENT_SET_NO":999,"REV_AT_EPOCH":22417,"BSTAR":0.00011169635,"MEAN_MOTION_DOT":1.49e-5,"MEAN_MOTION_DDOT":0},{"OBJECT_NAME":"STARLINK-3269","OBJECT_ID":"2021-125AQ","EPOCH":"2025-12-16T08:00:04.000032","MEAN_MOTION":15.61243425,"ECCENTRICITY":0.00044753,"INCLINATION":53.2155,"RA_OF_ASC_NODE":186.5577,"ARG_OF_PERICENTER":132.3044,"MEAN_ANOMALY":121.45,"EPHEMERIS_TYPE":0,"CLASSIFICATION_TYPE":"U","NORAD_CAT_ID":50194,"ELEMENT_SET_NO":999,"REV_AT_EPOCH":583,"BSTAR":0.0012204262,"MEAN_MOTION_DOT":0.00106267,"MEAN_MOTION_DDOT":0},{"OBJECT_NAME":"STARLINK-3266","OBJECT_ID":"2021-125AR","EPOCH":"2025-12-16T04:17:11.303520","MEAN_MOTION":15.0884044,"ECCENTRICITY":0.00016542,"INCLINATION":53.2179,"RA_OF_ASC_NODE":254.0182,"ARG_OF_PERICENTER":89.639,"MEAN_ANOMALY":270.4792,"EPHEMERIS_TYPE":0,"CLASSIFICATION_TYPE":"U","NORAD_CAT_ID":50195,"ELEMENT_SET_NO":999,"REV_AT_EPOCH":22412,"BSTAR":0.00010965965,"MEAN_MOTION_DOT":1.458e-5,"MEAN_MOTION_DDOT":0},{"OBJECT_NAME":"STARLINK-3267","OBJECT_ID":"2021-125AT","EPOCH":"2025-12-16T00:45:12.961728","MEAN_MOTION":15.08836184,"ECCENTRICITY":0.00015777,"INCLINATION":53.2156,"RA_OF_ASC_NODE":254.6767,"ARG_OF_PERICENTER":82.2536,"MEAN_ANOMALY":277.8635,"EPHEMERIS_TYPE":0,"CLASSIFICATION_TYPE":"U","NORAD_CAT_ID":50197,"ELEMENT_SET_NO":999,"REV_AT_EPOCH":22415,"BSTAR":1.709355e-6,"MEAN_MOTION_DOT":-2.61e-6,"MEAN_MOTION_DDOT":0},{"OBJECT_NAME":"STARLINK-3264","OBJECT_ID":"2021-125AU","EPOCH":"2025-12-16T00:24:00.381312","MEAN_MOTION":15.08834588,"ECCENTRICITY":0.00013163,"INCLINATION":53.2164,"RA_OF_ASC_NODE":254.743,"ARG_OF_PERICENTER":89.0967,"MEAN_ANOMALY":271.0176,"EPHEMERIS_TYPE":0,"CLASSIFICATION_TYPE":"U","NORAD_CAT_ID":50198,"ELEMENT_SET_NO":999,"REV_AT_EPOCH":22410,"BSTAR":-0.00018540839,"MEAN_MOTION_DOT":-3.237e-5,"MEAN_MOTION_DDOT":0},{"OBJECT_NAME":"STARLINK-3270","OBJECT_ID":"2021-125AV","EPOCH":"2025-12-16T01:32:54.553056","MEAN_MOTION":15.08838408,"ECCENTRICITY":0.00013297,"INCLINATION":53.2166,"RA_OF_ASC_NODE":254.5305,"ARG_OF_PERICENTER":93.483,"MEAN_ANOMALY":266.6314,"EPHEMERIS_TYPE":0,"CLASSIFICATION_TYPE":"U","NORAD_CAT_ID":50199,"ELEMENT_SET_NO":999,"REV_AT_EPOCH":22410,"BSTAR":0.00015014128,"MEAN_MOTION_DOT":2.102e-5,"MEAN_MOTION_DDOT":0},{"OBJECT_NAME":"STARLINK-3235","OBJECT_ID":"2021-125AW","EPOCH":"2025-12-16T03:40:04.632096","MEAN_MOTION":15.08843759,"ECCENTRICITY":0.00015691,"INCLINATION":53.2176,"RA_OF_ASC_NODE":254.0921,"ARG_OF_PERICENTER":92.0661,"MEAN_ANOMALY":268.0511,"EPHEMERIS_TYPE":0,"CLASSIFICATION_TYPE":"U","NORAD_CAT_ID":50200,"ELEMENT_SET_NO":999,"REV_AT_EPOCH":22413,"BSTAR":9.1087141e-5,"MEAN_MOTION_DOT":1.162e-5,"MEAN_MOTION_DDOT":0},{"OBJECT_NAME":"STARLINK-3255","OBJECT_ID":"2021-125AX","EPOCH":"2025-12-15T20:09:06.575616","MEAN_MOTION":15.641488,"ECCENTRICITY":0.00032698,"INCLINATION":53.2036,"RA_OF_ASC_NODE":194.2562,"ARG_OF_PERICENTER":146.8687,"MEAN_ANOMALY":213.2535,"EPHEMERIS_TYPE":0,"CLASSIFICATION_TYPE":"U","NORAD_CAT_ID":50201,"ELEMENT_SET_NO":999,"REV_AT_EPOCH":22494,"BSTAR":0.00039067952,"MEAN_MOTION_DOT":0.00037417,"MEAN_MOTION_DDOT":0},{"OBJECT_NAME":"STARLINK-3256","OBJECT_ID":"2021-125AY","EPOCH":"2025-12-16T03:02:59.536608","MEAN_MOTION":15.08843049,"ECCENTRICITY":0.00014812,"INCLINATION":53.2162,"RA_OF_ASC_NODE":254.2491,"ARG_OF_PERICENTER":96.1547,"MEAN_ANOMALY":263.9614,"EPHEMERIS_TYPE":0,"CLASSIFICATION_TYPE":"U","NORAD_CAT_ID":50202,"ELEMENT_SET_NO":999,"REV_AT_EPOCH":22411,"BSTAR":0.00017577712,"MEAN_MOTION_DOT":2.511e-5,"MEAN_MOTION_DDOT":0},{"OBJECT_NAME":"STARLINK-3257","OBJECT_ID":"2021-125AZ","EPOCH":"2025-12-16T03:52:07.108896","MEAN_MOTION":15.08815767,"ECCENTRICITY":0.00015854,"INCLINATION":53.2175,"RA_OF_ASC_NODE":254.1812,"ARG_OF_PERICENTER":83.3414,"MEAN_ANOMALY":276.7758,"EPHEMERIS_TYPE":0,"CLASSIFICATION_TYPE":"U","NORAD_CAT_ID":50203,"ELEMENT_SET_NO":999,"REV_AT_EPOCH":22418,"BSTAR":-0.00017083092,"MEAN_MOTION_DOT":-3.004e-5,"MEAN_MOTION_DDOT":0},{"OBJECT_NAME":"STARLINK-3254","OBJECT_ID":"2021-125BA","EPOCH":"2025-12-16T03:14:58.286976","MEAN_MOTION":15.08843724,"ECCENTRICITY":0.00016289,"INCLINATION":53.2181,"RA_OF_ASC_NODE":254.2225,"ARG_OF_PERICENTER":80.9255,"MEAN_ANOMALY":279.1921,"EPHEMERIS_TYPE":0,"CLASSIFICATION_TYPE":"U","NORAD_CAT_ID":50204,"ELEMENT_SET_NO":999,"REV_AT_EPOCH":22417,"BSTAR":6.21549e-5,"MEAN_MOTION_DOT":7.01e-6,"MEAN_MOTION_DDOT":0},{"OBJECT_NAME":"STARLINK-3260","OBJECT_ID":"2021-125BB","EPOCH":"2025-12-16T01:48:51.479712","MEAN_MOTION":15.08839896,"ECCENTRICITY":0.00015274,"INCLINATION":53.2163,"RA_OF_ASC_NODE":224.4791,"ARG_OF_PERICENTER":84.7001,"MEAN_ANOMALY":275.4165,"EPHEMERIS_TYPE":0,"CLASSIFICATION_TYPE":"U","NORAD_CAT_ID":50205,"ELEMENT_SET_NO":999,"REV_AT_EPOCH":22453,"BSTAR":2.8048455e-5,"MEAN_MOTION_DOT":1.58e-6,"MEAN_MOTION_DDOT":0},{"OBJECT_NAME":"STARLINK-3258","OBJECT_ID":"2021-125BC","EPOCH":"2025-12-16T03:04:20.968608","MEAN_MOTION":15.08846489,"ECCENTRICITY":0.00013805,"INCLINATION":53.2177,"RA_OF_ASC_NODE":254.1409,"ARG_OF_PERICENTER":93.3325,"MEAN_ANOMALY":266.7825,"EPHEMERIS_TYPE":0,"CLASSIFICATION_TYPE":"U","NORAD_CAT_ID":50206,"ELEMENT_SET_NO":999,"REV_AT_EPOCH":22204,"BSTAR":7.572496e-5,"MEAN_MOTION_DOT":9.18e-6,"MEAN_MOTION_DDOT":0},{"OBJECT_NAME":"STARLINK-3262","OBJECT_ID":"2021-125BD","EPOCH":"2025-12-16T03:24:11.792160","MEAN_MOTION":15.08839955,"ECCENTRICITY":0.00014978,"INCLINATION":53.2162,"RA_OF_ASC_NODE":254.1828,"ARG_OF_PERICENTER":84.8482,"MEAN_ANOMALY":275.2681,"EPHEMERIS_TYPE":0,"CLASSIFICATION_TYPE":"U","NORAD_CAT_ID":50207,"ELEMENT_SET_NO":999,"REV_AT_EPOCH":22211,"BSTAR":0.00011122503,"MEAN_MOTION_DOT":1.483e-5,"MEAN_MOTION_DDOT":0},{"OBJECT_NAME":"STARLINK-3323","OBJECT_ID":"2022-001B","EPOCH":"2025-12-15T21:29:08.964960","MEAN_MOTION":15.08833726,"ECCENTRICITY":0.00015297,"INCLINATION":53.2166,"RA_OF_ASC_NODE":175.2891,"ARG_OF_PERICENTER":91.9404,"MEAN_ANOMALY":268.1764,"EPHEMERIS_TYPE":0,"CLASSIFICATION_TYPE":"U","NORAD_CAT_ID":50804,"ELEMENT_SET_NO":999,"REV_AT_EPOCH":21789,"BSTAR":1.8916232e-5,"MEAN_MOTION_DOT":1.3e-7,"MEAN_MOTION_DDOT":0},{"OBJECT_NAME":"STARLINK-3333","OBJECT_ID":"2022-001C","EPOCH":"2025-12-16T05:20:46.324032","MEAN_MOTION":15.08838104,"ECCENTRICITY":0.00014482,"INCLINATION":53.2163,"RA_OF_ASC_NODE":173.8174,"ARG_OF_PERICENTER":91.0993,"MEAN_ANOMALY":269.0165,"EPHEMERIS_TYPE":0,"CLASSIFICATION_TYPE":"U","NORAD_CAT_ID":50805,"ELEMENT_SET_NO":999,"REV_AT_EPOCH":21794,"BSTAR":3.3520509e-5,"MEAN_MOTION_DOT":2.46e-6,"MEAN_MOTION_DDOT":0},{"OBJECT_NAME":"STARLINK-3335","OBJECT_ID":"2022-001D","EPOCH":"2025-12-16T05:15:28.351296","MEAN_MOTION":15.08838307,"ECCENTRICITY":0.0001407,"INCLINATION":53.2156,"RA_OF_ASC_NODE":173.8337,"ARG_OF_PERICENTER":84.9348,"MEAN_ANOMALY":275.1804,"EPHEMERIS_TYPE":0,"CLASSIFICATION_TYPE":"U","NORAD_CAT_ID":50806,"ELEMENT_SET_NO":999,"REV_AT_EPOCH":21794,"BSTAR":-4.933078e-6,"MEAN_MOTION_DOT":-3.66e-6,"MEAN_MOTION_DDOT":0},{"OBJECT_NAME":"STARLINK-3355","OBJECT_ID":"2022-001F","EPOCH":"2025-12-16T05:04:52.407552","MEAN_MOTION":15.08838355,"ECCENTRICITY":0.00012977,"INCLINATION":53.2156,"RA_OF_ASC_NODE":173.8647,"ARG_OF_PERICENTER":88.0599,"MEAN_ANOMALY":272.0542,"EPHEMERIS_TYPE":0,"CLASSIFICATION_TYPE":"U","NORAD_CAT_ID":50808,"ELEMENT_SET_NO":999,"REV_AT_EPOCH":21794,"BSTAR":1.732001e-6,"MEAN_MOTION_DOT":-2.6e-6,"MEAN_MOTION_DDOT":0},{"OBJECT_NAME":"STARLINK-3232","OBJECT_ID":"2022-001G","EPOCH":"2025-12-15T19:37:51.988512","MEAN_MOTION":15.08844697,"ECCENTRICITY":0.00015316,"INCLINATION":53.216,"RA_OF_ASC_NODE":175.6328,"ARG_OF_PERICENTER":79.3839,"MEAN_ANOMALY":280.7326,"EPHEMERIS_TYPE":0,"CLASSIFICATION_TYPE":"U","NORAD_CAT_ID":50809,"ELEMENT_SET_NO":999,"REV_AT_EPOCH":21788,"BSTAR":5.6657861e-5,"MEAN_MOTION_DOT":6.14e-6,"MEAN_MOTION_DDOT":0},{"OBJECT_NAME":"STARLINK-3338","OBJECT_ID":"2022-001K","EPOCH":"2025-12-16T05:47:17.257344","MEAN_MOTION":15.08846355,"ECCENTRICITY":0.00013686,"INCLINATION":53.2158,"RA_OF_ASC_NODE":173.8404,"ARG_OF_PERICENTER":89.9585,"MEAN_ANOMALY":270.1564,"EPHEMERIS_TYPE":0,"CLASSIFICATION_TYPE":"U","NORAD_CAT_ID":50812,"ELEMENT_SET_NO":999,"REV_AT_EPOCH":21794,"BSTAR":-0.00024683757,"MEAN_MOTION_DOT":-4.215e-5,"MEAN_MOTION_DDOT":0}]
